{"fetched_at":"2026-07-13T18:16:33.418Z","source":"https://celestrak.org/NORAD/elements/gp.php?GROUP=planet&FORMAT=JSON","constellation":"superdove","records":[{"OBJECT_NAME":"FLOCK 4H-16","OBJECT_ID":"2025-276BF","EPOCH":"2026-07-13T03:52:51.573792","CLASSIFICATION_TYPE":"U","MEAN_MOTION":15.20134287,"ECCENTRICITY":0.0002718,"INCLINATION":97.4234,"RA_OF_ASC_NODE":267.3317,"ARG_OF_PERICENTER":268.114,"MEAN_ANOMALY":91.9784,"EPHEMERIS_TYPE":0,"NORAD_CAT_ID":66719,"ELEMENT_SET_NO":999,"REV_AT_EPOCH":3436,"BSTAR":0.00018796735,"MEAN_MOTION_DOT":0.00003996,"MEAN_MOTION_DDOT":0},{"OBJECT_NAME":"FLOCK 4H-18","OBJECT_ID":"2025-276BH","EPOCH":"2026-07-12T18:32:52.376352","CLASSIFICATION_TYPE":"U","MEAN_MOTION":15.20073104,"ECCENTRICITY":0.00022974,"INCLINATION":97.4176,"RA_OF_ASC_NODE":266.7646,"ARG_OF_PERICENTER":307.3848,"MEAN_ANOMALY":52.7178,"EPHEMERIS_TYPE":0,"NORAD_CAT_ID":66721,"ELEMENT_SET_NO":999,"REV_AT_EPOCH":3430,"BSTAR":0.00019535567,"MEAN_MOTION_DOT":0.00004148,"MEAN_MOTION_DDOT":0},{"OBJECT_NAME":"FLOCK 4H-19","OBJECT_ID":"2025-276BJ","EPOCH":"2026-07-12T12:15:40.996224","CLASSIFICATION_TYPE":"U","MEAN_MOTION":15.21266946,"ECCENTRICITY":0.00021654,"INCLINATION":97.4177,"RA_OF_ASC_NODE":266.9648,"ARG_OF_PERICENTER":154.176,"MEAN_ANOMALY":205.9584,"EPHEMERIS_TYPE":0,"NORAD_CAT_ID":66722,"ELEMENT_SET_NO":999,"REV_AT_EPOCH":3358,"BSTAR":0.00014962306,"MEAN_MOTION_DOT":0.00003274,"MEAN_MOTION_DDOT":0},{"OBJECT_NAME":"FLOCK 4H-20","OBJECT_ID":"2025-276BK","EPOCH":"2026-07-12T18:38:00.697344","CLASSIFICATION_TYPE":"U","MEAN_MOTION":15.21427583,"ECCENTRICITY":0.00025879,"INCLINATION":97.4213,"RA_OF_ASC_NODE":267.3305,"ARG_OF_PERICENTER":177.2483,"MEAN_ANOMALY":182.8767,"EPHEMERIS_TYPE":0,"NORAD_CAT_ID":66723,"ELEMENT_SET_NO":999,"REV_AT_EPOCH":3358,"BSTAR":0.00018692666,"MEAN_MOTION_DOT":0.00004128,"MEAN_MOTION_DDOT":0},{"OBJECT_NAME":"FLOCK 4H-21","OBJECT_ID":"2025-276BL","EPOCH":"2026-07-12T17:47:29.026752","CLASSIFICATION_TYPE":"U","MEAN_MOTION":15.21013868,"ECCENTRICITY":0.00024491,"INCLINATION":97.4178,"RA_OF_ASC_NODE":267.1228,"ARG_OF_PERICENTER":176.0754,"MEAN_ANOMALY":184.0501,"EPHEMERIS_TYPE":0,"NORAD_CAT_ID":66724,"ELEMENT_SET_NO":999,"REV_AT_EPOCH":3357,"BSTAR":0.00017928004,"MEAN_MOTION_DOT":0.00003908,"MEAN_MOTION_DDOT":0},{"OBJECT_NAME":"FLOCK 4H-22","OBJECT_ID":"2025-276BM","EPOCH":"2026-07-13T12:12:53.658432","CLASSIFICATION_TYPE":"U","MEAN_MOTION":15.20507989,"ECCENTRICITY":0.0001096,"INCLINATION":97.4169,"RA_OF_ASC_NODE":267.5908,"ARG_OF_PERICENTER":311.8876,"MEAN_ANOMALY":48.2266,"EPHEMERIS_TYPE":0,"NORAD_CAT_ID":66725,"ELEMENT_SET_NO":999,"REV_AT_EPOCH":3442,"BSTAR":0.00018986,"MEAN_MOTION_DOT":0.00004081,"MEAN_MOTION_DDOT":0},{"OBJECT_NAME":"FLOCK 4H-23","OBJECT_ID":"2025-276BN","EPOCH":"2026-07-13T10:19:48.598176","CLASSIFICATION_TYPE":"U","MEAN_MOTION":15.20056383,"ECCENTRICITY":0.0002868,"INCLINATION":97.424,"RA_OF_ASC_NODE":267.5975,"ARG_OF_PERICENTER":254.1357,"MEAN_ANOMALY":105.9562,"EPHEMERIS_TYPE":0,"NORAD_CAT_ID":66726,"ELEMENT_SET_NO":999,"REV_AT_EPOCH":3440,"BSTAR":0.00018765,"MEAN_MOTION_DOT":0.0000398,"MEAN_MOTION_DDOT":0},{"OBJECT_NAME":"FLOCK 4H-24","OBJECT_ID":"2025-276BP","EPOCH":"2026-07-12T18:10:12.823104","CLASSIFICATION_TYPE":"U","MEAN_MOTION":15.20162058,"ECCENTRICITY":0.00023872,"INCLINATION":97.4237,"RA_OF_ASC_NODE":266.9635,"ARG_OF_PERICENTER":282.7277,"MEAN_ANOMALY":77.3691,"EPHEMERIS_TYPE":0,"NORAD_CAT_ID":66727,"ELEMENT_SET_NO":999,"REV_AT_EPOCH":3430,"BSTAR":0.00022384487,"MEAN_MOTION_DOT":0.00004776,"MEAN_MOTION_DDOT":0},{"OBJECT_NAME":"FLOCK 4H-25","OBJECT_ID":"2025-276BQ","EPOCH":"2026-07-13T03:42:19.914624","CLASSIFICATION_TYPE":"U","MEAN_MOTION":15.20930394,"ECCENTRICITY":0.00017921,"INCLINATION":97.4189,"RA_OF_ASC_NODE":267.5208,"ARG_OF_PERICENTER":127.8082,"MEAN_ANOMALY":232.3316,"EPHEMERIS_TYPE":0,"NORAD_CAT_ID":66728,"ELEMENT_SET_NO":999,"REV_AT_EPOCH":3366,"BSTAR":0.00020217456,"MEAN_MOTION_DOT":0.00004405,"MEAN_MOTION_DDOT":0},{"OBJECT_NAME":"FLOCK 4H-26","OBJECT_ID":"2025-276BR","EPOCH":"2026-07-13T06:01:21.019008","CLASSIFICATION_TYPE":"U","MEAN_MOTION":15.19887193,"ECCENTRICITY":0.0003203,"INCLINATION":97.4189,"RA_OF_ASC_NODE":267.2337,"ARG_OF_PERICENTER":276.124,"MEAN_ANOMALY":83.963,"EPHEMERIS_TYPE":0,"NORAD_CAT_ID":66729,"ELEMENT_SET_NO":999,"REV_AT_EPOCH":3437,"BSTAR":0.00017446,"MEAN_MOTION_DOT":0.00003677,"MEAN_MOTION_DDOT":0},{"OBJECT_NAME":"FLOCK 4H-27","OBJECT_ID":"2025-276BS","EPOCH":"2026-07-13T12:19:49.799712","CLASSIFICATION_TYPE":"U","MEAN_MOTION":15.20756558,"ECCENTRICITY":0.0001473,"INCLINATION":97.4166,"RA_OF_ASC_NODE":267.7288,"ARG_OF_PERICENTER":126.7019,"MEAN_ANOMALY":233.4352,"EPHEMERIS_TYPE":0,"NORAD_CAT_ID":66730,"ELEMENT_SET_NO":999,"REV_AT_EPOCH":3443,"BSTAR":0.00017221,"MEAN_MOTION_DOT":0.00003723,"MEAN_MOTION_DDOT":0},{"OBJECT_NAME":"FLOCK 4H-29","OBJECT_ID":"2025-276BU","EPOCH":"2026-07-12T18:28:33.673152","CLASSIFICATION_TYPE":"U","MEAN_MOTION":15.20024779,"ECCENTRICITY":0.00017283,"INCLINATION":97.417,"RA_OF_ASC_NODE":266.7432,"ARG_OF_PERICENTER":301.7488,"MEAN_ANOMALY":58.3579,"EPHEMERIS_TYPE":0,"NORAD_CAT_ID":66732,"ELEMENT_SET_NO":999,"REV_AT_EPOCH":3430,"BSTAR":0.00020504537,"MEAN_MOTION_DOT":0.00004351,"MEAN_MOTION_DDOT":0},{"OBJECT_NAME":"FLOCK 4H-30","OBJECT_ID":"2025-276BV","EPOCH":"2026-07-13T00:36:20.055168","CLASSIFICATION_TYPE":"U","MEAN_MOTION":15.20150093,"ECCENTRICITY":0.00026057,"INCLINATION":97.4229,"RA_OF_ASC_NODE":267.1995,"ARG_OF_PERICENTER":277.8712,"MEAN_ANOMALY":82.2228,"EPHEMERIS_TYPE":0,"NORAD_CAT_ID":66733,"ELEMENT_SET_NO":999,"REV_AT_EPOCH":3434,"BSTAR":0.00021213213,"MEAN_MOTION_DOT":0.00004521,"MEAN_MOTION_DDOT":0},{"OBJECT_NAME":"FLOCK 4H-31","OBJECT_ID":"2025-276BW","EPOCH":"2026-07-13T10:34:53.601024","CLASSIFICATION_TYPE":"U","MEAN_MOTION":15.19928404,"ECCENTRICITY":0.0002146,"INCLINATION":97.4167,"RA_OF_ASC_NODE":267.3703,"ARG_OF_PERICENTER":290.2865,"MEAN_ANOMALY":69.8139,"EPHEMERIS_TYPE":0,"NORAD_CAT_ID":66734,"ELEMENT_SET_NO":999,"REV_AT_EPOCH":3440,"BSTAR":0.00017243,"MEAN_MOTION_DOT":0.00003638,"MEAN_MOTION_DDOT":0},{"OBJECT_NAME":"FLOCK 4H-32","OBJECT_ID":"2025-276BX","EPOCH":"2026-07-13T03:58:30.083808","CLASSIFICATION_TYPE":"U","MEAN_MOTION":15.20045599,"ECCENTRICITY":0.00030063,"INCLINATION":97.4222,"RA_OF_ASC_NODE":267.2942,"ARG_OF_PERICENTER":273.1555,"MEAN_ANOMALY":86.9336,"EPHEMERIS_TYPE":0,"NORAD_CAT_ID":66735,"ELEMENT_SET_NO":999,"REV_AT_EPOCH":3436,"BSTAR":0.00018249325,"MEAN_MOTION_DOT":0.00003867,"MEAN_MOTION_DDOT":0},{"OBJECT_NAME":"FLOCK 4H-33","OBJECT_ID":"2025-276BY","EPOCH":"2026-07-13T10:54:03.476160","CLASSIFICATION_TYPE":"U","MEAN_MOTION":15.2117609,"ECCENTRICITY":0.0002575,"INCLINATION":97.4219,"RA_OF_ASC_NODE":267.9684,"ARG_OF_PERICENTER":166.2441,"MEAN_ANOMALY":193.8865,"EPHEMERIS_TYPE":0,"NORAD_CAT_ID":66736,"ELEMENT_SET_NO":999,"REV_AT_EPOCH":3443,"BSTAR":0.0001585,"MEAN_MOTION_DOT":0.00003463,"MEAN_MOTION_DDOT":0}]}
