FLOCK 4H-16             
1 66719U 25276BF  26194.16170803  .00003996  00000+0  18797-3 0  9990
2 66719  97.4234 267.3317 0002718 268.1140  91.9784 15.20134287 34366
FLOCK 4H-18             
1 66721U 25276BH  26193.77282843  .00004148  00000+0  19536-3 0  9999
2 66721  97.4176 266.7646 0002297 307.3848  52.7178 15.20073104 34301
FLOCK 4H-19             
1 66722U 25276BJ  26193.51089116  .00003274  00000+0  14962-3 0  9997
2 66722  97.4177 266.9648 0002165 154.1760 205.9584 15.21266946 33583
FLOCK 4H-20             
1 66723U 25276BK  26193.77639696  .00004128  00000+0  18693-3 0  9994
2 66723  97.4213 267.3305 0002587 177.2483 182.8767 15.21427583 33588
FLOCK 4H-21             
1 66724U 25276BL  26193.74130818  .00003908  00000+0  17928-3 0  9999
2 66724  97.4178 267.1228 0002449 176.0754 184.0501 15.21013868 33572
FLOCK 4H-22             
1 66725U 25276BM  26194.50895438  .00004081  00000+0  18986-3 0  9999
2 66725  97.4169 267.5908 0001096 311.8876  48.2266 15.20507989 34428
FLOCK 4H-23             
1 66726U 25276BN  26194.43042359  .00003980  00000+0  18765-3 0  9990
2 66726  97.4240 267.5975 0002868 254.1357 105.9562 15.20056383 34409
FLOCK 4H-24             
1 66727U 25276BP  26193.75709286  .00004776  00000+0  22384-3 0  9990
2 66727  97.4237 266.9635 0002387 282.7277  77.3691 15.20162058 34307
FLOCK 4H-25             
1 66728U 25276BQ  26194.15439716  .00004405  00000+0  20217-3 0  9996
2 66728  97.4189 267.5208 0001792 127.8082 232.3316 15.20930394 33660
FLOCK 4H-26             
1 66729U 25276BR  26194.25093772  .00003677  00000+0  17446-3 0  9996
2 66729  97.4189 267.2337 0003203 276.1240  83.9630 15.19887193 34378
FLOCK 4H-27             
1 66730U 25276BS  26194.51377083  .00003723  00000+0  17221-3 0  9990
2 66730  97.4166 267.7288 0001473 126.7019 233.4352 15.20756558 34438
FLOCK 4H-29             
1 66732U 25276BU  26193.76983418  .00004351  00000+0  20505-3 0  9990
2 66732  97.4170 266.7432 0001728 301.7488  58.3579 15.20024779 34307
FLOCK 4H-30             
1 66733U 25276BV  26194.02523212  .00004521  00000+0  21213-3 0  9999
2 66733  97.4229 267.1995 0002605 277.8712  82.2228 15.20150093 34340
FLOCK 4H-31             
1 66734U 25276BW  26194.44089816  .00003638  00000+0  17243-3 0  9999
2 66734  97.4167 267.3703 0002146 290.2865  69.8139 15.19928404 34405
FLOCK 4H-32             
1 66735U 25276BX  26194.16562597  .00003867  00000+0  18249-3 0  9992
2 66735  97.4222 267.2942 0003006 273.1555  86.9336 15.20045599 34365
FLOCK 4H-33             
1 66736U 25276BY  26194.45420690  .00003463  00000+0  15850-3 0  9999
2 66736  97.4219 267.9684 0002575 166.2441 193.8865 15.21176090 34433
